STARLINK-36435          
1 67568U 26016H   26034.25002315 -.01756998  85803-3 -53020-2 0  9996
2 67568  97.2802  92.8892 0001210  77.0360 229.3206 15.92289404  2513
STARLINK-36575          
1 67569U 26016J   26034.25002315 -.01756722  85978-3 -52390-2 0  9994
2 67569  97.2799  92.8916 0001213  72.8668 237.6036 15.92518067  2516
STARLINK-36562          
1 67570U 26016K   26034.25002315 -.01746478  85187-3 -51645-2 0  9997
2 67570  97.2795  92.8926 0001276  72.2679 241.3246 15.92680398  2512
STARLINK-36578          
1 67571U 26016L   26034.25002315 -.01740576  84815-3 -50970-2 0  9998
2 67571  97.2795  92.8937 0001195  75.0996 242.0100 15.92868762  2495
STARLINK-36350          
1 67572U 26016M   26034.25002315 -.01744844  85416-3 -50456-2 0  9998
2 67572  97.2797  92.8957 0001194  67.3920 254.0280 15.93111782  2407
STARLINK-36588          
1 67573U 26016N   26034.25002315 -.01731159  84402-3 -49369-2 0  9999
2 67573  97.2787  92.8975 0001270  69.2305 256.9828 15.93376802  2562
STARLINK-36594          
1 67574U 26016P   26034.25002315 -.01723693  83858-3 -48762-2 0  9994
2 67574  97.2783  92.8982 0001194  65.3561 263.8156 15.93530285  2561
STARLINK-36400          
1 67575U 26016Q   26034.25002315 -.01721054  83771-3 -48243-2 0  9992
2 67575  97.2788  92.9003 0001134  76.8717 255.5465 15.93705666  2452
STARLINK-36591          
1 67576U 26016R   26034.25002315 -.01713544  83243-3 -47589-2 0  9994
2 67576  97.2782  92.9012 0001201  73.3553 262.4174 15.93881352  2510
STARLINK-36590          
1 67577U 26016S   26034.25002315 -.01705268  82637-3 -46949-2 0  9994
2 67577  97.2777  92.9025 0001258  62.4022 276.4347 15.94045938  2511
STARLINK-36613          
1 67578U 26016T   26034.25002315 -.01694171  81805-3 -46162-2 0  9998
2 67578  97.2775  92.9039 0001196  65.2224 277.2446 15.94241684  2516
STARLINK-36571          
1 67579U 26016U   26034.25002315 -.01701014  82651-3 -45704-2 0  9995
2 67579  97.2777  92.9065 0001246  63.0164 284.0353 15.94508142  2511
