CCSDS_OMM_VERS = 2.0
CREATION_DATE  = 
ORIGINATOR     = 

OBJECT_NAME    = STARLINK-36435
OBJECT_ID      = 2026-016H
CENTER_NAME    = EARTH
REF_FRAME      = TEME
TIME_SYSTEM    = UTC
MEAN_ELEMENT_THEORY = SGP/SGP4

EPOCH          = 2026-02-03T06:00:02.000160
MEAN_MOTION    = 15.92289404
ECCENTRICITY   = .00012101
INCLINATION    = 97.2802
RA_OF_ASC_NODE = 92.8892
ARG_OF_PERICENTER = 77.0360
MEAN_ANOMALY   = 229.3206

EPHEMERIS_TYPE = 0
CLASSIFICATION_TYPE = U
NORAD_CAT_ID   = 67568
ELEMENT_SET_NO = 999
REV_AT_EPOCH   = 251
BSTAR          = -.53019644E-2
MEAN_MOTION_DOT = -.1756998E-1
MEAN_MOTION_DDOT = .85802832E-3

CCSDS_OMM_VERS = 2.0
CREATION_DATE  = 
ORIGINATOR     = 

OBJECT_NAME    = STARLINK-36575
OBJECT_ID      = 2026-016J
CENTER_NAME    = EARTH
REF_FRAME      = TEME
TIME_SYSTEM    = UTC
MEAN_ELEMENT_THEORY = SGP/SGP4

EPOCH          = 2026-02-03T06:00:02.000160
MEAN_MOTION    = 15.92518067
ECCENTRICITY   = .00012135
INCLINATION    = 97.2799
RA_OF_ASC_NODE = 92.8916
ARG_OF_PERICENTER = 72.8668
MEAN_ANOMALY   = 237.6036

EPHEMERIS_TYPE = 0
CLASSIFICATION_TYPE = U
NORAD_CAT_ID   = 67569
ELEMENT_SET_NO = 999
REV_AT_EPOCH   = 251
BSTAR          = -.52389957E-2
MEAN_MOTION_DOT = -.1756722E-1
MEAN_MOTION_DDOT = .85977729E-3

CCSDS_OMM_VERS = 2.0
CREATION_DATE  = 
ORIGINATOR     = 

OBJECT_NAME    = STARLINK-36562
OBJECT_ID      = 2026-016K
CENTER_NAME    = EARTH
REF_FRAME      = TEME
TIME_SYSTEM    = UTC
MEAN_ELEMENT_THEORY = SGP/SGP4

EPOCH          = 2026-02-03T06:00:02.000160
MEAN_MOTION    = 15.92680398
ECCENTRICITY   = .00012763
INCLINATION    = 97.2795
RA_OF_ASC_NODE = 92.8926
ARG_OF_PERICENTER = 72.2679
MEAN_ANOMALY   = 241.3246

EPHEMERIS_TYPE = 0
CLASSIFICATION_TYPE = U
NORAD_CAT_ID   = 67570
ELEMENT_SET_NO = 999
REV_AT_EPOCH   = 251
BSTAR          = -.51645452E-2
MEAN_MOTION_DOT = -.1746478E-1
MEAN_MOTION_DDOT = .85187169E-3

CCSDS_OMM_VERS = 2.0
CREATION_DATE  = 
ORIGINATOR     = 

OBJECT_NAME    = STARLINK-36578
OBJECT_ID      = 2026-016L
CENTER_NAME    = EARTH
REF_FRAME      = TEME
TIME_SYSTEM    = UTC
MEAN_ELEMENT_THEORY = SGP/SGP4

EPOCH          = 2026-02-03T06:00:02.000160
MEAN_MOTION    = 15.92868762
ECCENTRICITY   = .00011957
INCLINATION    = 97.2795
RA_OF_ASC_NODE = 92.8937
ARG_OF_PERICENTER = 75.0996
MEAN_ANOMALY   = 242.0100

EPHEMERIS_TYPE = 0
CLASSIFICATION_TYPE = U
NORAD_CAT_ID   = 67571
ELEMENT_SET_NO = 999
REV_AT_EPOCH   = 249
BSTAR          = -.50969849E-2
MEAN_MOTION_DOT = -.1740576E-1
MEAN_MOTION_DDOT = .84814903E-3

CCSDS_OMM_VERS = 2.0
CREATION_DATE  = 
ORIGINATOR     = 

OBJECT_NAME    = STARLINK-36350
OBJECT_ID      = 2026-016M
CENTER_NAME    = EARTH
REF_FRAME      = TEME
TIME_SYSTEM    = UTC
MEAN_ELEMENT_THEORY = SGP/SGP4

EPOCH          = 2026-02-03T06:00:02.000160
MEAN_MOTION    = 15.93111782
ECCENTRICITY   = .00011942
INCLINATION    = 97.2797
RA_OF_ASC_NODE = 92.8957
ARG_OF_PERICENTER = 67.3920
MEAN_ANOMALY   = 254.0280

EPHEMERIS_TYPE = 0
CLASSIFICATION_TYPE = U
NORAD_CAT_ID   = 67572
ELEMENT_SET_NO = 999
REV_AT_EPOCH   = 240
BSTAR          = -.50455893E-2
MEAN_MOTION_DOT = -.1744844E-1
MEAN_MOTION_DDOT = .85415594E-3

CCSDS_OMM_VERS = 2.0
CREATION_DATE  = 
ORIGINATOR     = 

OBJECT_NAME    = STARLINK-36588
OBJECT_ID      = 2026-016N
CENTER_NAME    = EARTH
REF_FRAME      = TEME
TIME_SYSTEM    = UTC
MEAN_ELEMENT_THEORY = SGP/SGP4

EPOCH          = 2026-02-03T06:00:02.000160
MEAN_MOTION    = 15.93376802
ECCENTRICITY   = .00012706
INCLINATION    = 97.2787
RA_OF_ASC_NODE = 92.8975
ARG_OF_PERICENTER = 69.2305
MEAN_ANOMALY   = 256.9828

EPHEMERIS_TYPE = 0
CLASSIFICATION_TYPE = U
NORAD_CAT_ID   = 67573
ELEMENT_SET_NO = 999
REV_AT_EPOCH   = 256
BSTAR          = -.49369256E-2
MEAN_MOTION_DOT = -.1731159E-1
MEAN_MOTION_DDOT = .84401792E-3

CCSDS_OMM_VERS = 2.0
CREATION_DATE  = 
ORIGINATOR     = 

OBJECT_NAME    = STARLINK-36594
OBJECT_ID      = 2026-016P
CENTER_NAME    = EARTH
REF_FRAME      = TEME
TIME_SYSTEM    = UTC
MEAN_ELEMENT_THEORY = SGP/SGP4

EPOCH          = 2026-02-03T06:00:02.000160
MEAN_MOTION    = 15.93530285
ECCENTRICITY   = .00011946
INCLINATION    = 97.2783
RA_OF_ASC_NODE = 92.8982
ARG_OF_PERICENTER = 65.3561
MEAN_ANOMALY   = 263.8156

EPHEMERIS_TYPE = 0
CLASSIFICATION_TYPE = U
NORAD_CAT_ID   = 67574
ELEMENT_SET_NO = 999
REV_AT_EPOCH   = 256
BSTAR          = -.48762169E-2
MEAN_MOTION_DOT = -.1723693E-1
MEAN_MOTION_DDOT = .83857884E-3

CCSDS_OMM_VERS = 2.0
CREATION_DATE  = 
ORIGINATOR     = 

OBJECT_NAME    = STARLINK-36400
OBJECT_ID      = 2026-016Q
CENTER_NAME    = EARTH
REF_FRAME      = TEME
TIME_SYSTEM    = UTC
MEAN_ELEMENT_THEORY = SGP/SGP4

EPOCH          = 2026-02-03T06:00:02.000160
MEAN_MOTION    = 15.93705666
ECCENTRICITY   = .00011349
INCLINATION    = 97.2788
RA_OF_ASC_NODE = 92.9003
ARG_OF_PERICENTER = 76.8717
MEAN_ANOMALY   = 255.5465

EPHEMERIS_TYPE = 0
CLASSIFICATION_TYPE = U
NORAD_CAT_ID   = 67575
ELEMENT_SET_NO = 999
REV_AT_EPOCH   = 245
BSTAR          = -.48242617E-2
MEAN_MOTION_DOT = -.1721054E-1
MEAN_MOTION_DDOT = .83770502E-3

CCSDS_OMM_VERS = 2.0
CREATION_DATE  = 
ORIGINATOR     = 

OBJECT_NAME    = STARLINK-36591
OBJECT_ID      = 2026-016R
CENTER_NAME    = EARTH
REF_FRAME      = TEME
TIME_SYSTEM    = UTC
MEAN_ELEMENT_THEORY = SGP/SGP4

EPOCH          = 2026-02-03T06:00:02.000160
MEAN_MOTION    = 15.93881352
ECCENTRICITY   = .00012016
INCLINATION    = 97.2782
RA_OF_ASC_NODE = 92.9012
ARG_OF_PERICENTER = 73.3553
MEAN_ANOMALY   = 262.4174

EPHEMERIS_TYPE = 0
CLASSIFICATION_TYPE = U
NORAD_CAT_ID   = 67576
ELEMENT_SET_NO = 999
REV_AT_EPOCH   = 251
BSTAR          = -.47589238E-2
MEAN_MOTION_DOT = -.1713544E-1
MEAN_MOTION_DDOT = .8324259E-3

CCSDS_OMM_VERS = 2.0
CREATION_DATE  = 
ORIGINATOR     = 

OBJECT_NAME    = STARLINK-36590
OBJECT_ID      = 2026-016S
CENTER_NAME    = EARTH
REF_FRAME      = TEME
TIME_SYSTEM    = UTC
MEAN_ELEMENT_THEORY = SGP/SGP4

EPOCH          = 2026-02-03T06:00:02.000160
MEAN_MOTION    = 15.94045938
ECCENTRICITY   = .00012585
INCLINATION    = 97.2777
RA_OF_ASC_NODE = 92.9025
ARG_OF_PERICENTER = 62.4022
MEAN_ANOMALY   = 276.4347

EPHEMERIS_TYPE = 0
CLASSIFICATION_TYPE = U
NORAD_CAT_ID   = 67577
ELEMENT_SET_NO = 999
REV_AT_EPOCH   = 251
BSTAR          = -.46948974E-2
MEAN_MOTION_DOT = -.1705268E-1
MEAN_MOTION_DDOT = .82636955E-3

CCSDS_OMM_VERS = 2.0
CREATION_DATE  = 
ORIGINATOR     = 

OBJECT_NAME    = STARLINK-36613
OBJECT_ID      = 2026-016T
CENTER_NAME    = EARTH
REF_FRAME      = TEME
TIME_SYSTEM    = UTC
MEAN_ELEMENT_THEORY = SGP/SGP4

EPOCH          = 2026-02-03T06:00:02.000160
MEAN_MOTION    = 15.94241684
ECCENTRICITY   = .00011962
INCLINATION    = 97.2775
RA_OF_ASC_NODE = 92.9039
ARG_OF_PERICENTER = 65.2224
MEAN_ANOMALY   = 277.2446

EPHEMERIS_TYPE = 0
CLASSIFICATION_TYPE = U
NORAD_CAT_ID   = 67578
ELEMENT_SET_NO = 999
REV_AT_EPOCH   = 251
BSTAR          = -.46162423E-2
MEAN_MOTION_DOT = -.1694171E-1
MEAN_MOTION_DDOT = .81805041E-3

CCSDS_OMM_VERS = 2.0
CREATION_DATE  = 
ORIGINATOR     = 

OBJECT_NAME    = STARLINK-36571
OBJECT_ID      = 2026-016U
CENTER_NAME    = EARTH
REF_FRAME      = TEME
TIME_SYSTEM    = UTC
MEAN_ELEMENT_THEORY = SGP/SGP4

EPOCH          = 2026-02-03T06:00:02.000160
MEAN_MOTION    = 15.94508142
ECCENTRICITY   = .00012464
INCLINATION    = 97.2777
RA_OF_ASC_NODE = 92.9065
ARG_OF_PERICENTER = 63.0164
MEAN_ANOMALY   = 284.0353

EPHEMERIS_TYPE = 0
CLASSIFICATION_TYPE = U
NORAD_CAT_ID   = 67579
ELEMENT_SET_NO = 999
REV_AT_EPOCH   = 251
BSTAR          = -.45703979E-2
MEAN_MOTION_DOT = -.1701014E-1
MEAN_MOTION_DDOT = .82650957E-3

